start=new Date('2022-10-17T00:00:00.000Z').valueOf();
sats=[{"APOAPSIS":"548.288","ECCENTRICITY":"0.00014430","MEAN_ELEMENT_THEORY":"SGP4","TLE_LINE1":"1 44758U 19074AX  22289.59281457 -.00002707  00000-0 -16304-3 0  9998","FILE":"3617955","ELEMENT_SET_NO":"999","NORAD_CAT_ID":"44758","CLASSIFICATION_TYPE":"U","SITE":"AFETR","SEMIMAJOR_AXIS":"6925.424","MEAN_MOTION_DDOT":"0.0000000000000","MEAN_ANOMALY":"275.3331","REF_FRAME":"TEME","RCS_SIZE":"LARGE","OBJECT_ID":"2019-074AX","TIME_SYSTEM":"UTC","CENTER_NAME":"EARTH","REV_AT_EPOCH":"16128","COUNTRY_CODE":"US","RA_OF_ASC_NODE":"33.7150","ARG_OF_PERICENTER":"84.7822","BSTAR":"-0.00016304000000","EPOCH":"2022-10-16T14:13:39.178848","INCLINATION":"53.0565","OBJECT_NAME":"STARLINK-1053","GP_ID":"215344948","PERIOD":"95.594","MEAN_MOTION_DOT":"-0.00002707","MEAN_MOTION":"15.06375417","DECAY_DATE":null,"LAUNCH_DATE":"2019-11-11","TLE_LINE2":"2 44758  53.0565  33.7150 0001443  84.7822 275.3331 15.06375417161287","PERIAPSIS":"546.290","OBJECT_TYPE":"PAYLOAD","EPHEMERIS_TYPE":"0"},{"EPOCH":"2022-10-16T16:58:08.488416","BSTAR":"0.00003409400000","ARG_OF_PERICENTER":"87.1636","RA_OF_ASC_NODE":"33.1165","PERIOD":"95.592","GP_ID":"215343698","OBJECT_NAME":"STARLINK-1054","INCLINATION":"53.0567","LAUNCH_DATE":"2019-11-11","DECAY_DATE":null,"MEAN_MOTION":"15.06406351","MEAN_MOTION_DOT":"0.00000227","EPHEMERIS_TYPE":"0","OBJECT_TYPE":"PAYLOAD","PERIAPSIS":"546.275","TLE_LINE2":"2 44759  53.0567  33.1165 0001327  87.1636 272.9505 15.06406351158948","MEAN_ELEMENT_THEORY":"SGP4","ECCENTRICITY":"0.00013270","APOAPSIS":"548.113","SITE":"AFETR","SEMIMAJOR_AXIS":"6925.329","CLASSIFICATION_TYPE":"U","NORAD_CAT_ID":"44759","ELEMENT_SET_NO":"999","TLE_LINE1":"1 44759U 19074AY  22289.70704269  .00000227  00000-0  34094-4 0  9993","FILE":"3617955","TIME_SYSTEM":"UTC","OBJECT_ID":"2019-074AY","RCS_SIZE":"LARGE","REF_FRAME":"TEME","MEAN_MOTION_DDOT":"0.0000000000000","MEAN_ANOMALY":"272.9505","COUNTRY_CODE":"US","REV_AT_EPOCH":"15894","CENTER_NAME":"EARTH"},{"CLASSIFICATION_TYPE":"U","SITE":"AFETR","SEMIMAJOR_AXIS":"6925.350","FILE":"3617955","TLE_LINE1":"1 44760U 19074AZ  22289.69230896  .00000688  00000-0  65067-4 0  9998","NORAD_CAT_ID":"44760","ELEMENT_SET_NO":"999","MEAN_ELEMENT_THEORY":"SGP4","APOAPSIS":"548.455","ECCENTRICITY":"0.00017910","REV_AT_EPOCH":"16130","COUNTRY_CODE":"US","CENTER_NAME":"EARTH","OBJECT_ID":"2019-074AZ","TIME_SYSTEM":"UTC","MEAN_ANOMALY":"303.0984","MEAN_MOTION_DDOT":"0.0000000000000","RCS_SIZE":"LARGE","REF_FRAME":"TEME","GP_ID":"215343948","OBJECT_NAME":"STARLINK-1055","PERIOD":"95.592","INCLINATION":"53.0570","BSTAR":"0.00006506700000","ARG_OF_PERICENTER":"57.0177","EPOCH":"2022-10-16T16:36:55.494144","RA_OF_ASC_NODE":"33.1937","PERIAPSIS":"545.975","OBJECT_TYPE":"PAYLOAD","EPHEMERIS_TYPE":"0","TLE_LINE2":"2 44760  53.0570  33.1937 0001791  57.0177 303.0984 15.06399533161306","DECAY_DATE":null,"LAUNCH_DATE":"2019-11-11","MEAN_MOTION_DOT":"0.00000688","MEAN_MOTION":"15.06399533"},{"MEAN_MOTION":"15.06392802","MEAN_MOTION_DOT":"-0.00000152","LAUNCH_DATE":"2019-11-11","DECAY_DATE":null,"TLE_LINE2":"2 44761  53.0561  33.1476 0001607  61.8510 298.2641 15.06392802161302","EPHEMERIS_TYPE":"0","PERIAPSIS":"546.123","OBJECT_TYPE":"PAYLOAD","RA_OF_ASC_NODE":"33.1476","EPOCH":"2022-10-16T16:52:51.199104","ARG_OF_PERICENTER":"61.8510","BSTAR":"0.00000871180000","INCLINATION":"53.0561","PERIOD":"95.593","GP_ID":"215344200","OBJECT_NAME":"STARLINK-1056","REF_FRAME":"TEME","RCS_SIZE":"LARGE","MEAN_MOTION_DDOT":"0.0000000000000","MEAN_ANOMALY":"298.2641","TIME_SYSTEM":"UTC","OBJECT_ID":"2019-074BA","CENTER_NAME":"EARTH","COUNTRY_CODE":"US","REV_AT_EPOCH":"16130","APOAPSIS":"548.349","ECCENTRICITY":"0.00016070","MEAN_ELEMENT_THEORY":"SGP4","ELEMENT_SET_NO":"999","NORAD_CAT_ID":"44761","TLE_LINE1":"1 44761U 19074BA  22289.70337036 -.00000152  00000-0  87118-5 0  9994","FILE":"3617955","SITE":"AFETR","SEMIMAJOR_AXIS":"6925.371","CLASSIFICATION_TYPE":"U"},{"FILE":"3617121","TLE_LINE1":"1 44762U 19074BB  22289.50617504 -.00001831  00000-0 -10408-3 0  9996","NORAD_CAT_ID":"44762","ELEMENT_SET_NO":"999","CLASSIFICATION_TYPE":"U","SITE":"AFETR","SEMIMAJOR_AXIS":"6925.396","ECCENTRICITY":"0.00012790","APOAPSIS":"548.147","MEAN_ELEMENT_THEORY":"SGP4","CENTER_NAME":"EARTH","REV_AT_EPOCH":"16154","COUNTRY_CODE":"US","MEAN_ANOMALY":"295.2066","MEAN_MOTION_DDOT":"0.0000000000000","RCS_SIZE":"LARGE","REF_FRAME":"TEME","OBJECT_ID":"2019-074BB","TIME_SYSTEM":"UTC","INCLINATION":"53.0546","OBJECT_NAME":"STARLINK-1057","GP_ID":"215299794","PERIOD":"95.593","RA_OF_ASC_NODE":"14.0308","BSTAR":"-0.00010408000000","ARG_OF_PERICENTER":"64.9055","EPOCH":"2022-10-16T12:08:53.523456","TLE_LINE2":"2 44762  53.0546  14.0308 0001279  64.9055 295.2066 15.06384572161540","OBJECT_TYPE":"PAYLOAD","PERIAPSIS":"546.375","EPHEMERIS_TYPE":"0","MEAN_MOTION_DOT":"-0.00001831","MEAN_MOTION":"15.06384572","DECAY_DATE":null,"LAUNCH_DATE":"2019-11-11"},{"MEAN_ELEMENT_THEORY":"SGP4","ECCENTRICITY":"0.00013280","APOAPSIS":"548.166","CLASSIFICATION_TYPE":"U","SITE":"AFETR","SEMIMAJOR_AXIS":"6925.382","FILE":"3617955","TLE_LINE1":"1 44763U 19074BC  22289.59184348 -.00001424  00000-0 -76742-4 0  9993","NORAD_CAT_ID":"44763","ELEMENT_SET_NO":"999","OBJECT_ID":"2019-074BC","TIME_SYSTEM":"UTC","MEAN_ANOMALY":"272.7463","MEAN_MOTION_DDOT":"0.0000000000000","RCS_SIZE":"LARGE","REF_FRAME":"TEME","REV_AT_EPOCH":"16128","COUNTRY_CODE":"US","CENTER_NAME":"EARTH","ARG_OF_PERICENTER":"87.3678","BSTAR":"-0.00007674200000","EPOCH":"2022-10-16T14:12:15.276672","RA_OF_ASC_NODE":"33.6137","OBJECT_NAME":"STARLINK-1058","GP_ID":"215343199","PERIOD":"95.593","INCLINATION":"53.0565","DECAY_DATE":null,"LAUNCH_DATE":"2019-11-11","MEAN_MOTION_DOT":"-0.00001424","MEAN_MOTION":"15.06389191","OBJECT_TYPE":"PAYLOAD","PERIAPSIS":"546.327","EPHEMERIS_TYPE":"0","TLE_LINE2":"2 44763  53.0565  33.6137 0001328  87.3678 272.7463 15.06389191161288"},{"ARG_OF_PERICENTER":"64.7405","BSTAR":"0.00135070000000","EPOCH":"2022-10-16T13:59:51.407232","RA_OF_ASC_NODE":"12.4623","GP_ID":"215343449","OBJECT_NAME":"STARLINK-1059","PERIOD":"95.386","INCLINATION":"53.0570","DECAY_DATE":null,"LAUNCH_DATE":"2019-11-11","MEAN_MOTION_DOT":"0.00021768","MEAN_MOTION":"15.09663074","PERIAPSIS":"535.038","OBJECT_TYPE":"PAYLOAD","EPHEMERIS_TYPE":"0","TLE_LINE2":"2 44764  53.0570  12.4623 0003171  64.7405 295.3914 15.09663074161577","MEAN_ELEMENT_THEORY":"SGP4","APOAPSIS":"539.424","ECCENTRICITY":"0.00031710","CLASSIFICATION_TYPE":"U","SITE":"AFETR","SEMIMAJOR_AXIS":"6915.366","FILE":"3617955","TLE_LINE1":"1 44764U 19074BD  22289.58323388  .00021768  00000-0  13507-2 0  9991","NORAD_CAT_ID":"44764","ELEMENT_SET_NO":"999","OBJECT_ID":"2019-074BD","TIME_SYSTEM":"UTC","MEAN_ANOMALY":"295.3914","MEAN_MOTION_DDOT":"0.0000000000000","REF_FRAME":"TEME","RCS_SIZE":"LARGE","REV_AT_EPOCH":"16157","COUNTRY_CODE":"US","CENTER_NAME":"EARTH"},{"MEAN_ELEMENT_THEORY":"SGP4","ECCENTRICITY":"0.00015730","APOAPSIS":"548.283","SITE":"AFETR","SEMIMAJOR_AXIS":"6925.329","CLASSIFICATION_TYPE":"U","NORAD_CAT_ID":"44765","ELEMENT_SET_NO":"999","FILE":"3617955","TLE_LINE1":"1 44765U 19074BE  22289.65359503  .00000276  00000-0  37441-4 0  9994","TIME_SYSTEM":"UTC","OBJECT_ID":"2019-074BE","REF_FRAME":"TEME","RCS_SIZE":"LARGE","MEAN_ANOMALY":"312.6021","MEAN_MOTION_DDOT":"0.0000000000000","COUNTRY_CODE":"US","REV_AT_EPOCH":"16156","CENTER_NAME":"EARTH","EPOCH":"2022-10-16T15:41:10.610592","ARG_OF_PERICENTER":"47.5101","BSTAR":"0.00003744100000","RA_OF_ASC_NODE":"13.3641","PERIOD":"95.592","GP_ID":"215344699","OBJECT_NAME":"STARLINK-1060","INCLINATION":"53.0578","LAUNCH_DATE":"2019-11-11","DECAY_DATE":null,"MEAN_MOTION":"15.06406538","MEAN_MOTION_DOT":"0.00000276","EPHEMERIS_TYPE":"0","OBJECT_TYPE":"PAYLOAD","PERIAPSIS":"546.104","TLE_LINE2":"2 44765  53.0578  13.3641 0001573  47.5101 312.6021 15.06406538161560"},{"RA_OF_ASC_NODE":"33.0805","ARG_OF_PERICENTER":"71.4305","BSTAR":"-0.00019321000000","EPOCH":"2022-10-16T17:14:05.854848","INCLINATION":"53.0569","OBJECT_NAME":"STARLINK-1061","GP_ID":"215344949","PERIOD":"95.593","MEAN_MOTION_DOT":"-0.00003157","MEAN_MOTION":"15.06379627","DECAY_DATE":null,"LAUNCH_DATE":"2019-11-11","TLE_LINE2":"2 44766  53.0569  33.0805 0001607  71.4305 288.6859 15.06379627161303","PERIAPSIS":"546.163","OBJECT_TYPE":"PAYLOAD","EPHEMERIS_TYPE":"0","ECCENTRICITY":"0.00016070","APOAPSIS":"548.389","MEAN_ELEMENT_THEORY":"SGP4","TLE_LINE1":"1 44766U 19074BF  22289.71812332 -.00003157  00000-0 -19321-3 0  9995","FILE":"3617955","NORAD_CAT_ID":"44766","ELEMENT_SET_NO":"999","CLASSIFICATION_TYPE":"U","SITE":"AFETR","SEMIMAJOR_AXIS":"6925.411","MEAN_MOTION_DDOT":"0.0000000000000","MEAN_ANOMALY":"288.6859","REF_FRAME":"TEME","RCS_SIZE":"LARGE","OBJECT_ID":"2019-074BF","TIME_SYSTEM":"UTC","CENTER_NAME":"EARTH","REV_AT_EPOCH":"16130","COUNTRY_CODE":"US"},{"MEAN_ELEMENT_THEORY":"SGP4","APOAPSIS":"548.407","ECCENTRICITY":"0.00016970","CLASSIFICATION_TYPE":"U","SITE":"AFETR","SEMIMAJOR_AXIS":"6925.367","TLE_LINE1":"1 44767U 19074BG  22289.70979392 -.00001216  00000-0 -62733-4 0  9995","FILE":"3617955","ELEMENT_SET_NO":"999","NORAD_CAT_ID":"44767","OBJECT_ID":"2019-074BG","TIME_SYSTEM":"UTC","MEAN_MOTION_DDOT":"0.0000000000000","MEAN_ANOMALY":"306.4992","REF_FRAME":"TEME","RCS_SIZE":"LARGE","REV_AT_EPOCH":"16130","COUNTRY_CODE":"US","CENTER_NAME":"EARTH","ARG_OF_PERICENTER":"53.6154","BSTAR":"-0.00006273300000","EPOCH":"2022-10-16T17:02:06.194688","RA_OF_ASC_NODE":"33.1038","GP_ID":"215343699","OBJECT_NAME":"STARLINK-1062","PERIOD":"95.593","INCLINATION":"53.0565","DECAY_DATE":null,"LAUNCH_DATE":"2019-11-11","MEAN_MOTION_DOT":"-0.00001216","MEAN_MOTION":"15.06394020","PERIAPSIS":"546.057","OBJECT_TYPE":"PAYLOAD","EPHEMERIS_TYPE":"0","TLE_LINE2":"2 44767  53.0565  33.1038 0001697  53.6154 306.4992 15.06394020161303"}];
